[{"OBJECT_NAME":"STARLINK-4577","OBJECT_ID":"2022-101AP","EPOCH":"2026-03-09T08:30:29.776320","MEAN_MOTION":15.08844388,"ECCENTRICITY":0.00014015,"INCLINATION":53.2182,"RA_OF_ASC_NODE":55.6902,"ARG_OF_PERICENTER":84.0483,"MEAN_ANOMALY":276.0669,"EPHEMERIS_TYPE":0,"CLASSIFICATION_TYPE":"U","NORAD_CAT_ID":53564,"ELEMENT_SET_NO":999,"REV_AT_EPOCH":19639,"BSTAR":0.00010470597,"MEAN_MOTION_DOT":1.379e-5,"MEAN_MOTION_DDOT":0},{"OBJECT_NAME":"ICEYE-X67","OBJECT_ID":"2025-248K","EPOCH":"2026-03-09T22:00:01.999584","MEAN_MOTION":15.09405994,"ECCENTRICITY":0.00063951,"INCLINATION":45.4045,"RA_OF_ASC_NODE":295.7576,"ARG_OF_PERICENTER":209.4534,"MEAN_ANOMALY":51.9892,"EPHEMERIS_TYPE":0,"CLASSIFICATION_TYPE":"U","NORAD_CAT_ID":66302,"ELEMENT_SET_NO":999,"REV_AT_EPOCH":578,"BSTAR":-0.000164009,"MEAN_MOTION_DOT":-2.917e-5,"MEAN_MOTION_DDOT":0}]
